{
  "type": "FeatureCollection",
  "features": [
    {
      "type": "Feature",
      "properties": {
        "norad_id": 66625,
        "name": "STARLINK-35929",
        "group": "last-30-days",
        "lat": 20.605253310850884,
        "lon": -37.27947735789933,
        "alt_km": 420.4519250540461,
        "timestamp": "2025-12-18T14:52:06.780907+00:00",
        "meta_object_name": "STARLINK-35929",
        "meta_object_id": "2025-271J",
        "meta_epoch": "2025-12-18T06:27:35.132832",
        "meta_mean_motion": 15.48054242,
        "meta_eccentricity": 0.00033539,
        "meta_inclination": 53.1597,
        "meta_ra_of_asc_node": 160.7656,
        "meta_arg_of_pericenter": 64.9356,
        "meta_mean_anomaly": 295.2,
        "meta_ephemeris_type": 0,
        "meta_classification_type": "U",
        "meta_norad_cat_id": 66625,
        "meta_element_set_no": 999,
        "meta_rev_at_epoch": 506,
        "meta_bstar": -0.0023362783,
        "meta_mean_motion_dot": -0.00122881,
        "meta_mean_motion_ddot": 0,
        "tle_line1": "1 66625U 25271J   25352.26915663 -.00122881  00000+0 -23363-2 0  9999",
        "tle_line2": "2 66625  53.1597 160.7656 0003353  64.9356 295.2000 15.48054242  5069"
      },
      "geometry": {
        "type": "Point",
        "coordinates": [
          -37.27947735789933,
          20.605253310850884
        ]
      }
    },
    {
      "type": "Feature",
      "properties": {
        "norad_id": 66626,
        "name": "STARLINK-35902",
        "group": "last-30-days",
        "lat": 53.1374297990325,
        "lon": -111.66415010148363,
        "alt_km": 439.1589145437838,
        "timestamp": "2025-12-18T14:52:06.780918+00:00",
        "meta_object_name": "STARLINK-35902",
        "meta_object_id": "2025-271K",
        "meta_epoch": "2025-12-18T06:00:02.999808",
        "meta_mean_motion": 15.39579811,
        "meta_eccentricity": 0.00014104,
        "meta_inclination": 53.1602,
        "meta_ra_of_asc_node": 160.9619,
        "meta_arg_of_pericenter": 83.3718,
        "meta_mean_anomaly": 117.0381,
        "meta_ephemeris_type": 0,
        "meta_classification_type": "U",
        "meta_norad_cat_id": 66626,
        "meta_element_set_no": 999,
        "meta_rev_at_epoch": 512,
        "meta_bstar": 0.0010243982,
        "meta_mean_motion_dot": 0.0004074,
        "meta_mean_motion_ddot": 0,
        "tle_line1": "1 66626U 25271K   25352.25003472  .00040740  00000+0  10244-2 0  9990",
        "tle_line2": "2 66626  53.1602 160.9619 0001410  83.3718 117.0381 15.39579811  5121"
      },
      "geometry": {
        "type": "Point",
        "coordinates": [
          -111.66415010148363,
          53.1374297990325
        ]
      }
    },
    {
      "type": "Feature",
      "properties": {
        "norad_id": 66627,
        "name": "STARLINK-35904",
        "group": "last-30-days",
        "lat": 31.650637493368365,
        "lon": -48.40351535888637,
        "alt_km": 436.0846135983138,
        "timestamp": "2025-12-18T14:52:06.780928+00:00",
        "meta_object_name": "STARLINK-35904",
        "meta_object_id": "2025-271L",
        "meta_epoch": "2025-12-18T06:00:02.999808",
        "meta_mean_motion": 15.43561759,
        "meta_eccentricity": 0.00012511,
        "meta_inclination": 53.1603,
        "meta_ra_of_asc_node": 160.8713,
        "meta_arg_of_pericenter": 93.6865,
        "meta_mean_anomaly": 152.0152,
        "meta_ephemeris_type": 0,
        "meta_classification_type": "U",
        "meta_norad_cat_id": 66627,
        "meta_element_set_no": 999,
        "meta_rev_at_epoch": 496,
        "meta_bstar": -0.050446302,
        "meta_mean_motion_dot": -0.02046128,
        "meta_mean_motion_ddot": 0,
        "tle_line1": "1 66627U 25271L   25352.25003472 -.02046128  00000+0 -50446-1 0  9998",
        "tle_line2": "2 66627  53.1603 160.8713 0001251  93.6865 152.0152 15.43561759  4960"
      },
      "geometry": {
        "type": "Point",
        "coordinates": [
          -48.40351535888637,
          31.650637493368365
        ]
      }
    },
    {
      "type": "Feature",
      "properties": {
        "norad_id": 66628,
        "name": "STARLINK-35862",
        "group": "last-30-days",
        "lat": 13.576488652711017,
        "lon": -31.356008292122688,
        "alt_km": 417.6941869410366,
        "timestamp": "2025-12-18T14:52:06.780938+00:00",
        "meta_object_name": "STARLINK-35862",
        "meta_object_id": "2025-271M",
        "meta_epoch": "2025-12-18T06:25:42.557088",
        "meta_mean_motion": 15.49375302,
        "meta_eccentricity": 0.00020689,
        "meta_inclination": 53.1596,
        "meta_ra_of_asc_node": 160.7574,
        "meta_arg_of_pericenter": 52.7687,
        "meta_mean_anomaly": 307.3511,
        "meta_ephemeris_type": 0,
        "meta_classification_type": "U",
        "meta_norad_cat_id": 66628,
        "meta_element_set_no": 999,
        "meta_rev_at_epoch": 506,
        "meta_bstar": 0.0025571372,
        "meta_mean_motion_dot": 0.00144774,
        "meta_mean_motion_ddot": 0,
        "tle_line1": "1 66628U 25271M   25352.26785367  .00144774  00000+0  25571-2 0  9994",
        "tle_line2": "2 66628  53.1596 160.7574 0002068  52.7687 307.3511 15.49375302  5060"
      },
      "geometry": {
        "type": "Point",
        "coordinates": [
          -31.356008292122688,
          13.576488652711017
        ]
      }
    },
    {
      "type": "Feature",
      "properties": {
        "norad_id": 66629,
        "name": "STARLINK-35956",
        "group": "last-30-days",
        "lat": 9.521809122500509,
        "lon": -28.160336487630655,
        "alt_km": 415.13870552465323,
        "timestamp": "2025-12-18T14:52:06.780948+00:00",
        "meta_object_name": "STARLINK-35956",
        "meta_object_id": "2025-271N",
        "meta_epoch": "2025-12-17T22:40:33.711168",
        "meta_mean_motion": 15.50068802,
        "meta_eccentricity": 0.00077656,
        "meta_inclination": 53.1591,
        "meta_ra_of_asc_node": 162.2961,
        "meta_arg_of_pericenter": 69.9848,
        "meta_mean_anomaly": 290.1997,
        "meta_ephemeris_type": 0,
        "meta_classification_type": "U",
        "meta_norad_cat_id": 66629,
        "meta_element_set_no": 999,
        "meta_rev_at_epoch": 501,
        "meta_bstar": 0.0066522353,
        "meta_mean_motion_dot": 0.00399833,
        "meta_mean_motion_ddot": 0,
        "tle_line1": "1 66629U 25271N   25351.94483462  .00399833  00000+0  66522-2 0  9999",
        "tle_line2": "2 66629  53.1591 162.2961 0007765  69.9848 290.1997 15.50068802  5019"
      },
      "geometry": {
        "type": "Point",
        "coordinates": [
          -28.160336487630655,
          9.521809122500509
        ]
      }
    },
    {
      "type": "Feature",
      "properties": {
        "norad_id": 66630,
        "name": "STARLINK-35949",
        "group": "last-30-days",
        "lat": 11.095924813389125,
        "lon": -29.387922055654517,
        "alt_km": 419.2733105894267,
        "timestamp": "2025-12-18T14:52:06.780960+00:00",
        "meta_object_name": "STARLINK-35949",
        "meta_object_id": "2025-271P",
        "meta_epoch": "2025-12-18T06:24:45.768096",
        "meta_mean_motion": 15.490189,
        "meta_eccentricity": 0.0001458,
        "meta_inclination": 53.1598,
        "meta_ra_of_asc_node": 160.7516,
        "meta_arg_of_pericenter": 55.1565,
        "meta_mean_anomaly": 304.9581,
        "meta_ephemeris_type": 0,
        "meta_classification_type": "U",
        "meta_norad_cat_id": 66630,
        "meta_element_set_no": 999,
        "meta_rev_at_epoch": 506,
        "meta_bstar": 3.3096693e-05,
        "meta_mean_motion_dot": 1.375e-05,
        "meta_mean_motion_ddot": 0,
        "tle_line1": "1 66630U 25271P   25352.26719639  .00001375  00000+0  33097-4 0  9999",
        "tle_line2": "2 66630  53.1598 160.7516 0001458  55.1565 304.9581 15.49018900  5063"
      },
      "geometry": {
        "type": "Point",
        "coordinates": [
          -29.387922055654517,
          11.095924813389125
        ]
      }
    },
    {
      "type": "Feature",
      "properties": {
        "norad_id": 66631,
        "name": "STARLINK-35965",
        "group": "last-30-days",
        "lat": 9.216717489364905,
        "lon": -27.924058883703033,
        "alt_km": 417.91206640160544,
        "timestamp": "2025-12-18T14:52:06.780971+00:00",
        "meta_object_name": "STARLINK-35965",
        "meta_object_id": "2025-271Q",
        "meta_epoch": "2025-12-18T06:24:13.538304",
        "meta_mean_motion": 15.49246739,
        "meta_eccentricity": 9.349e-05,
        "meta_inclination": 53.159,
        "meta_ra_of_asc_node": 160.7505,
        "meta_arg_of_pericenter": 140.9892,
        "meta_mean_anomaly": 219.1185,
        "meta_ephemeris_type": 0,
        "meta_classification_type": "U",
        "meta_norad_cat_id": 66631,
        "meta_element_set_no": 999,
        "meta_rev_at_epoch": 506,
        "meta_bstar": 0.00066041772,
        "meta_mean_motion_dot": 0.00036372,
        "meta_mean_motion_ddot": 0,
        "tle_line1": "1 66631U 25271Q   25352.26682336  .00036372  00000+0  66042-3 0  9993",
        "tle_line2": "2 66631  53.1590 160.7505 0000934 140.9892 219.1185 15.49246739  5068"
      },
      "geometry": {
        "type": "Point",
        "coordinates": [
          -27.924058883703033,
          9.216717489364905
        ]
      }
    }
  ]
}